{
  "norad_id": 59241,
  "name": "STARLINK-31427",
  "history": [
    {
      "epoch": "2026-04-13T06:56:01.220928Z",
      "apogee_km": 483.89272350258034,
      "perigee_km": 482.22696213308063,
      "latitude_deg": -4.08283681736595e-05,
      "longitude_deg": 2.960244355302274,
      "height_km": 482.9775120684364,
      "semi_major_axis_km": 6861.19684281783,
      "eccentricity": 0.00012139,
      "inclination_deg": 43.005,
      "raan_deg": 308.4472,
      "arg_perigee_deg": 260.2815,
      "mean_anomaly_deg": 99.7899,
      "mean_motion_rev_day": 15.27576411
    },
    {
      "epoch": "2026-04-14T12:44:59.942112Z",
      "apogee_km": 483.85434194287063,
      "perigee_km": 482.27118870901904,
      "latitude_deg": -1.8662228280255076e-05,
      "longitude_deg": -92.52311479106247,
      "height_km": 482.9281248894966,
      "semi_major_axis_km": 6861.199765325944,
      "eccentricity": 0.00011537,
      "inclination_deg": 43.0021,
      "raan_deg": 301.433,
      "arg_perigee_deg": 263.57,
      "mean_anomaly_deg": 96.502,
      "mean_motion_rev_day": 15.27575435
    },
    {
      "epoch": "2026-04-15T20:08:07.401984Z",
      "apogee_km": 483.92304021556356,
      "perigee_km": 482.188530679402,
      "latitude_deg": 9.192233155369766e-06,
      "longitude_deg": 148.0226816946844,
      "height_km": 482.8578219962885,
      "semi_major_axis_km": 6861.1927854474825,
      "eccentricity": 0.0001264,
      "inclination_deg": 43.0031,
      "raan_deg": 294.0488,
      "arg_perigee_deg": 268.341,
      "mean_anomaly_deg": 91.7297,
      "mean_motion_rev_day": 15.27577766
    },
    {
      "epoch": "2026-04-16T13:23:51.023616Z",
      "apogee_km": 483.83629309400476,
      "perigee_km": 482.3103599173901,
      "latitude_deg": 1.6536274932425407e-05,
      "longitude_deg": -115.6820958566392,
      "height_km": 483.02746483139157,
      "semi_major_axis_km": 6861.210326505697,
      "eccentricity": 0.0001112,
      "inclination_deg": 43.0045,
      "raan_deg": 289.9847,
      "arg_perigee_deg": 256.5679,
      "mean_anomaly_deg": 103.5049,
      "mean_motion_rev_day": 15.27571908
    },
    {
      "epoch": "2026-04-17T20:46:59.984256Z",
      "apogee_km": 484.66730748394093,
      "perigee_km": 481.5433838439594,
      "latitude_deg": -4.225687927467949e-05,
      "longitude_deg": 124.85513736088636,
      "height_km": 483.74799527329577,
      "semi_major_axis_km": 6861.24234566395,
      "eccentricity": 0.00022765,
      "inclination_deg": 43.0008,
      "raan_deg": 282.5983,
      "arg_perigee_deg": 236.3469,
      "mean_anomaly_deg": 123.7165,
      "mean_motion_rev_day": 15.27561215
    },
    {
      "epoch": "2026-04-18T20:19:19.956000Z",
      "apogee_km": 483.58719192826265,
      "perigee_km": 482.53742843380405,
      "latitude_deg": -6.662314712308588e-06,
      "longitude_deg": 125.2649523738868,
      "height_km": 483.3064394875882,
      "semi_major_axis_km": 6861.199310181033,
      "eccentricity": 7.65e-05,
      "inclination_deg": 43.0017,
      "raan_deg": 277.058,
      "arg_perigee_deg": 153.31,
      "mean_anomaly_deg": 206.7791,
      "mean_motion_rev_day": 15.27575587
    },
    {
      "epoch": "2026-04-19T19:51:40.724352Z",
      "apogee_km": 484.1094880028877,
      "perigee_km": 482.2336062461036,
      "latitude_deg": 1.925177885377631e-05,
      "longitude_deg": 125.67322758116762,
      "height_km": 483.120615880895,
      "semi_major_axis_km": 6861.308547124495,
      "eccentricity": 0.0001367,
      "inclination_deg": 43.0066,
      "raan_deg": 271.5195,
      "arg_perigee_deg": 259.4519,
      "mean_anomaly_deg": 100.6179,
      "mean_motion_rev_day": 15.27539107
    },
    {
      "epoch": "2026-04-20T11:33:14.906592Z",
      "apogee_km": 483.60210849633586,
      "perigee_km": 482.5089832999229,
      "latitude_deg": -3.198591639431563e-05,
      "longitude_deg": -114.05573589438225,
      "height_km": 482.85557625866034,
      "semi_major_axis_km": 6861.1925458981295,
      "eccentricity": 7.966e-05,
      "inclination_deg": 43.0042,
      "raan_deg": 267.8275,
      "arg_perigee_deg": 267.5478,
      "mean_anomaly_deg": 92.5282,
      "mean_motion_rev_day": 15.27577846
    },
    {
      "epoch": "2026-04-21T17:22:11.649216Z",
      "apogee_km": 484.3994889468413,
      "perigee_km": 481.6509073702591,
      "latitude_deg": 4.7562209048671436e-05,
      "longitude_deg": 150.47122845700758,
      "height_km": 482.85465259820137,
      "semi_major_axis_km": 6861.16219815855,
      "eccentricity": 0.0002003,
      "inclination_deg": 43.0039,
      "raan_deg": 260.8153,
      "arg_perigee_deg": 267.8375,
      "mean_anomaly_deg": 92.2248,
      "mean_motion_rev_day": 15.27587981
    },
    {
      "epoch": "2026-04-22T16:54:32.999040Z",
      "apogee_km": 483.5388029923097,
      "perigee_km": 482.57823561960595,
      "latitude_deg": -2.1979115838827484e-05,
      "longitude_deg": 150.87187105677492,
      "height_km": 482.76519402987907,
      "semi_major_axis_km": 6861.1955193059575,
      "eccentricity": 7e-05,
      "inclination_deg": 43.006,
      "raan_deg": 255.2717,
      "arg_perigee_deg": 278.3912,
      "mean_anomaly_deg": 81.686,
      "mean_motion_rev_day": 15.27576853
    },
    {
      "epoch": "2026-04-23T08:36:08.216352Z",
      "apogee_km": 484.601244892423,
      "perigee_km": 481.6285388977403,
      "latitude_deg": 2.106290960521554e-05,
      "longitude_deg": -88.86231657691204,
      "height_km": 483.1945720917343,
      "semi_major_axis_km": 6861.251891895082,
      "eccentricity": 0.00021663,
      "inclination_deg": 43.0079,
      "raan_deg": 251.5787,
      "arg_perigee_deg": 258.2935,
      "mean_anomaly_deg": 101.7674,
      "mean_motion_rev_day": 15.27558027
    },
    {
      "epoch": "2026-04-24T09:42:37.178208Z",
      "apogee_km": 484.38721568941764,
      "perigee_km": 481.7278166949427,
      "latitude_deg": -4.2287514224706516e-06,
      "longitude_deg": -112.42127021298975,
      "height_km": 482.746503721295,
      "semi_major_axis_km": 6861.19451619218,
      "eccentricity": 0.0001938,
      "inclination_deg": 43.0043,
      "raan_deg": 245.6716,
      "arg_perigee_deg": 273.8218,
      "mean_anomaly_deg": 86.2412,
      "mean_motion_rev_day": 15.27577188
    },
    {
      "epoch": "2026-04-25T15:31:34.363200Z",
      "apogee_km": 484.33974987974216,
      "perigee_km": 481.6913449964304,
      "latitude_deg": 1.6510392483378682e-05,
      "longitude_deg": 152.1014856527177,
      "height_km": 482.47807516548403,
      "semi_major_axis_km": 6861.152547438086,
      "eccentricity": 0.000193,
      "inclination_deg": 43.0024,
      "raan_deg": 238.6571,
      "arg_perigee_deg": 283.7552,
      "mean_anomaly_deg": 76.3085,
      "mean_motion_rev_day": 15.27591204
    },
    {
      "epoch": "2026-04-26T18:12:15.507648Z",
      "apogee_km": 483.86450741323915,
      "perigee_km": 482.27435421083464,
      "latitude_deg": 4.8054036605256116e-05,
      "longitude_deg": 104.5563540358105,
      "height_km": 482.77684671766457,
      "semi_major_axis_km": 6861.206430812036,
      "eccentricity": 0.00011588,
      "inclination_deg": 43.0004,
      "raan_deg": 232.379,
      "arg_perigee_deg": 274.9879,
      "mean_anomaly_deg": 85.0841,
      "mean_motion_rev_day": 15.27573209
    },
    {
      "epoch": "2026-04-27T14:36:16.069248Z",
      "apogee_km": 484.1152857394827,
      "perigee_km": 481.9005081667465,
      "latitude_deg": -1.9031583282421804e-05,
      "longitude_deg": 152.91583849193108,
      "height_km": 482.5380990381134,
      "semi_major_axis_km": 6861.144896953114,
      "eccentricity": 0.0001614,
      "inclination_deg": 43.0014,
      "raan_deg": 227.5787,
      "arg_perigee_deg": 282.8792,
      "mean_anomaly_deg": 77.1879,
      "mean_motion_rev_day": 15.27593759
    },
    {
      "epoch": "2026-04-28T14:08:37.462272Z",
      "apogee_km": 483.9545776714049,
      "perigee_km": 482.18301433487613,
      "latitude_deg": 2.360403710891043e-05,
      "longitude_deg": 153.31942339209908,
      "height_km": 482.74040290111344,
      "semi_major_axis_km": 6861.20579600314,
      "eccentricity": 0.0001291,
      "inclination_deg": 42.9988,
      "raan_deg": 222.0381,
      "arg_perigee_deg": 276.7997,
      "mean_anomaly_deg": 83.2708,
      "mean_motion_rev_day": 15.27573421
    }
  ]
}